METHANESAT              
1 59101U 24043D   25283.31992050  .00003896  00000+0  35082-3 0  9994
2 59101  97.8167  48.9655 0011821 121.0670 239.1713 14.96148980 87262
GOSAT-GW (IBUKI GW)     
1 64694U 25141A   25282.89689608  .00001083  00000+0  19923-3 0  9993
2 64694  98.0316 219.6004 0001418  82.4953 277.6412 14.67573934 15133
GHGSAT-C1               
1 46278U 20061G   25283.27291037  .00023918  00000+0  35738-3 0  9998
2 46278  97.2383 358.0019 0001283 198.2694 161.8515 15.55024693284449
GHGSAT-C12              
1 64529U 25135B   25283.22509714  .00004425  00000+0  22166-3 0  9996
2 64529  97.4577  35.9862 0004436 338.6366  21.4682 15.17883788 16873
GHGSAT-C13              
1 64548U 25135W   25283.28570473  .00004285  00000+0  20954-3 0  9990
2 64548  97.4601  36.2427 0000250 132.0278 228.0978 15.18744860 16894
GHGSAT-C2               
1 47509U 21006DA  25283.12063966  .00006661  00000+0  20547-3 0  9996
2 47509  97.2543 329.7164 0005431   5.1868 354.9430 15.33895792261469
GHGSAT-C3               
1 52737U 22057F   25283.33661293  .00008698  00000+0  30183-3 0  9991
2 52737  97.6290  55.9581 0005455 289.0296  71.0353 15.30028160187277
GHGSAT-C4               
1 52746U 22057Q   25283.35532847  .00008612  00000+0  29897-3 0  9991
2 52746  97.6217  55.0584 0005682 271.3585  88.7004 15.30019397187288
GHGSAT-C5               
1 52744U 22057N   25283.30671721  .00008727  00000+0  30297-3 0  9992
2 52744  97.6378  57.2107 0006438 284.1606  75.8918 15.30009455187279
GHGSAT-C6               
1 56204U 23054AC  25283.30304162  .00014800  00000+0  32041-3 0  9995
2 56204  97.3171 184.9902 0006903 217.9835 142.0928 15.44530526139771
GHGSAT-C7               
1 56209U 23054AH  25283.29787881  .00012660  00000+0  28539-3 0  9990
2 56209  97.3131 184.3810 0007201 212.5990 147.4814 15.43362366139765
GHGSAT-C8               
1 56186U 23054J   25283.27704010  .00015020  00000+0  32515-3 0  9997
2 56186  97.3139 184.4177 0003742 238.9117 121.1764 15.44546358139751
SENTINEL-5P             
1 42969U 17064A   25283.25886261  .00000115  00000+0  75393-4 0  9993
2 42969  98.7672 222.4397 0000953  90.0718 270.0567 14.19556716414104
ENMAP                   
1 52159U 22033C   25283.31366757  .00000744  00000+0  11833-3 0  9993
2 52159  97.9782   4.1454 0001418  78.0503 282.0864 14.74927788189826
PRISMA                  
1 44072U 19015A   25283.40366519  .00001106  00000+0  14046-3 0  9992
2 44072  97.8655 356.7527 0000960  94.2524 265.8800 14.83631638355011
SENTINEL-2A             
1 40697U 15028A   25283.28460966  .00000186  00000+0  87634-4 0  9999
2 40697  98.5689 356.7128 0001169  96.7587 263.3728 14.30821328537990
SENTINEL-2B             
1 42063U 17013A   25283.34735146  .00000177  00000+0  84347-4 0  9994
2 42063  98.5690 356.7106 0001004  88.4739 271.6559 14.30811988448910
SENTINEL-2C             
1 60989U 24157A   25283.17270356  .00000189  00000+0  88644-4 0  9993
2 60989  98.5666 356.6008 0000969  90.8970 269.2324 14.30824021 57239
LANDSAT 8               
1 39084U 13008A   25283.27440630  .00000532  00000+0  12810-3 0  9996
2 39084  98.2144 352.2594 0001273  91.3394 268.7950 14.57108069661502
LANDSAT 9               
1 49260U 21088A   25283.17145887  .00000554  00000+0  13308-3 0  9992
2 49260  98.2166 352.1787 0001371  89.4069 270.7287 14.57102218214591
